[{"OBJECT_NAME":"STARLINK-31281","OBJECT_ID":"2024-041D","EPOCH":"2026-03-09T02:11:31.125408","MEAN_MOTION":15.27562264,"ECCENTRICITY":8.558e-5,"INCLINATION":42.9991,"RA_OF_ASC_NODE":313.774,"ARG_OF_PERICENTER":184.1324,"MEAN_ANOMALY":175.9521,"EPHEMERIS_TYPE":0,"CLASSIFICATION_TYPE":"U","NORAD_CAT_ID":59077,"ELEMENT_SET_NO":999,"REV_AT_EPOCH":11423,"BSTAR":-3.9292039e-5,"MEAN_MOTION_DOT":-1.342e-5,"MEAN_MOTION_DDOT":0},{"OBJECT_NAME":"TANSTAAFL-2","OBJECT_ID":"2024-247B","EPOCH":"2026-03-08T04:58:51.015360","MEAN_MOTION":15.28016845,"ECCENTRICITY":0.00030723,"INCLINATION":44.988,"RA_OF_ASC_NODE":125.0934,"ARG_OF_PERICENTER":298.8909,"MEAN_ANOMALY":61.1666,"EPHEMERIS_TYPE":0,"CLASSIFICATION_TYPE":"U","NORAD_CAT_ID":62378,"ELEMENT_SET_NO":999,"REV_AT_EPOCH":6750,"BSTAR":0.00050871624,"MEAN_MOTION_DOT":0.00013897,"MEAN_MOTION_DDOT":0}]
